CCSDS_OMM_VERS,COMMENT,CREATION_DATE,ORIGINATOR,OBJECT_NAME,OBJECT_ID,CENTER_NAME,REF_FRAME,TIME_SYSTEM,MEAN_ELEMENT_THEORY,EPOCH,MEAN_MOTION,ECCENTRICITY,INCLINATION,RA_OF_ASC_NODE,ARG_OF_PERICENTER,MEAN_ANOMALY,EPHEMERIS_TYPE,CLASSIFICATION_TYPE,NORAD_CAT_ID,ELEMENT_SET_NO,REV_AT_EPOCH,BSTAR,MEAN_MOTION_DOT,MEAN_MOTION_DDOT,SEMIMAJOR_AXIS,PERIOD,APOAPSIS,PERIAPSIS,OBJECT_TYPE,RCS_SIZE,COUNTRY_CODE,LAUNCH_DATE,SITE,DECAY_DATE,FILE,GP_ID,TLE_LINE0,TLE_LINE1,TLE_LINE2
"2.0","GENERATED VIA SPACE-TRACK.ORG API","2020-07-29T01:33:50","18 SPCS","COSMOS 1732","1986-015A","EARTH","TEME","UTC","SGP4","2020-07-28T16:44:17.726496","12.40985887","0.00270820","73.6122","305.8695","263.4869","96.3091","0","U","16593","999","56115","0.00003498400000","-0.00000013","0.0000000000000","7880.563","116.036","1523.770","1481.086","PAYLOAD","LARGE","CIS","1986-02-11","PKMTR","","2792792","158396845","0 COSMOS 1732","1 16593U 86015A   20210.69742739 -.00000013 +00000-0 +34984-4 0  9993","2 16593 073.6122 305.8695 0027082 263.4869 096.3091 12.40985887561158"
"2.0","GENERATED VIA SPACE-TRACK.ORG API","2020-07-28T18:48:22","18 SPCS","COSMOS 1732","1986-015A","EARTH","TEME","UTC","SGP4","2020-07-28T12:52:08.848992","12.40985851","0.00270850","73.6123","306.0856","263.7084","96.0875","0","U","16593","999","56113","-0.00000096034000","-0.00000018","0.0000000000000","7880.563","116.036","1523.773","1481.084","PAYLOAD","LARGE","CIS","1986-02-11","PKMTR","","2792599","158352999","0 COSMOS 1732","1 16593U 86015A   20210.53621353 -.00000018 +00000-0 -96034-6 0  9996","2 16593 073.6123 306.0856 0027085 263.7084 096.0875 12.40985851561132"
"2.0","GENERATED VIA SPACE-TRACK.ORG API","2020-07-28T18:48:22","18 SPCS","COSMOS 2498","2014-028C","EARTH","TEME","UTC","SGP4","2020-07-28T10:51:45.288864","12.42887536","0.00212160","82.4452","15.3934","76.6579","283.6867","0","U","39763","999","28053","-0.00000716490000","0.00000009","0.0000000000000","7872.523","115.859","1511.090","1477.685","PAYLOAD","LARGE","CIS","2014-05-23","PKMTR","","2792599","158364386","0 COSMOS 2498","1 39763U 14028C   20210.45260751 +.00000009 +00000-0 -71649-5 0  9990","2 39763 082.4452 015.3934 0021216 076.6579 283.6867 12.42887536280536"
"2.0","GENERATED VIA SPACE-TRACK.ORG API","2020-07-27T22:26:10","18 SPCS","COSMOS 1732","1986-015A","EARTH","TEME","UTC","SGP4","2020-07-27T17:31:24.458016","12.40985831","0.00270810","73.6123","307.1656","264.8326","94.9627","0","U","16593","999","56127","0.00002283200000","-0.00000014","0.0000000000000","7880.563","116.036","1523.770","1481.087","PAYLOAD","LARGE","CIS","1986-02-11","PKMTR","","2792213","158320401","0 COSMOS 1732","1 16593U 86015A   20209.73014419 -.00000014  00000-0  22832-4 0  9993","2 16593  73.6123 307.1656 0027081 264.8326  94.9627 12.40985831561274"
"2.0","GENERATED VIA SPACE-TRACK.ORG API","2020-07-27T22:36:11","18 SPCS","COSMOS 2498","2014-028C","EARTH","TEME","UTC","SGP4","2020-07-27T17:28:30.854496","12.42887541","0.00212290","82.4451","15.8472","78.1264","282.2187","0","U","39763","999","28044","0.00001694300000","0.00000012","0.0000000000000","7872.523","115.859","1511.100","1477.675","PAYLOAD","LARGE","CIS","2014-05-23","PKMTR","","2792273","158321871","0 COSMOS 2498","1 39763U 14028C   20209.72813489  .00000012  00000-0  16943-4 0  9998","2 39763  82.4451  15.8472 0021229  78.1264 282.2187 12.42887541280445"
"2.0","GENERATED VIA SPACE-TRACK.ORG API","2020-07-27T20:10:15","18 SPCS","COSMOS 1732","1986-015A","EARTH","TEME","UTC","SGP4","2020-07-27T13:39:15.579648","12.40985821","0.00270800","73.6123","307.3816","265.0544","94.7408","0","U","16593","999","56101","0.00002829600000","-0.00000014","0.0000000000000","7880.563","116.036","1523.769","1481.088","PAYLOAD","LARGE","CIS","1986-02-11","PKMTR","","2792185","158302382","0 COSMOS 1732","1 16593U 86015A   20209.56893032 -.00000014 +00000-0 +28296-4 0  9990","2 16593 073.6123 307.3816 0027080 265.0544 094.7408 12.40985821561014"
"2.0","GENERATED VIA SPACE-TRACK.ORG API","2020-07-27T20:10:15","18 SPCS","COSMOS 2498","2014-028C","EARTH","TEME","UTC","SGP4","2020-07-27T11:40:46.058016","12.42887582","0.00212300","82.4451","15.9984","78.6504","281.6966","0","U","39763","999","28041","0.00002376700000","0.00000013","0.0000000000000","7872.523","115.859","1511.101","1477.674","PAYLOAD","LARGE","CIS","2014-05-23","PKMTR","","2792185","158316034","0 COSMOS 2498","1 39763U 14028C   20209.48664419 +.00000013 +00000-0 +23767-4 0  9991","2 39763 082.4451 015.9984 0021230 078.6504 281.6966 12.42887582280418"
"2.0","GENERATED VIA SPACE-TRACK.ORG API","2020-07-27T03:33:34","18 SPCS","COSMOS 2498","2014-028C","EARTH","TEME","UTC","SGP4","2020-07-26T18:17:31.618464","12.42887587","0.00212340","82.4450","16.4525","80.1507","280.1964","0","U","39763","999","28032","0.00005507500000","0.00000018","0.0000000000000","7872.523","115.859","1511.104","1477.671","PAYLOAD","LARGE","CIS","2014-05-23","PKMTR","","2791858","158286610","0 COSMOS 2498","1 39763U 14028C   20208.76217151 +.00000018 +00000-0 +55075-4 0  9990","2 39763 082.4450 016.4525 0021234 080.1507 280.1964 12.42887587280326"
"2.0","GENERATED VIA SPACE-TRACK.ORG API","2020-07-27T03:33:34","18 SPCS","COSMOS 1732","1986-015A","EARTH","TEME","UTC","SGP4","2020-07-26T16:22:26.744736","12.40985747","0.00270780","73.6113","308.5697","266.3021","93.4926","0","U","16593","999","56090","0.00001105300000","-0.00000016","0.0000000000000","7880.564","116.036","1523.768","1481.090","PAYLOAD","LARGE","CIS","1986-02-11","PKMTR","","2791858","158276173","0 COSMOS 1732","1 16593U 86015A   20208.68225399 -.00000016 +00000-0 +11053-4 0  9992","2 16593 073.6113 308.5697 0027078 266.3021 093.4926 12.40985747560909"
"2.0","GENERATED VIA SPACE-TRACK.ORG API","2020-07-26T17:37:20","18 SPCS","COSMOS 1732","1986-015A","EARTH","TEME","UTC","SGP4","2020-07-26T12:30:17.865504","12.40985749","0.00270750","73.6114","308.7857","266.5211","93.2735","0","U","16593","999","56088","0.00001817700000","-0.00000015","0.0000000000000","7880.564","116.036","1523.765","1481.092","PAYLOAD","LARGE","CIS","1986-02-11","PKMTR","","2791649","158251290","0 COSMOS 1732","1 16593U 86015A   20208.52104011 -.00000015 +00000-0 +18177-4 0  9995","2 16593 073.6114 308.7857 0027075 266.5211 093.2735 12.40985749560885"
"2.0","GENERATED VIA SPACE-TRACK.ORG API","2020-07-26T14:36:09","18 SPCS","COSMOS 2498","2014-028C","EARTH","TEME","UTC","SGP4","2020-07-26T12:29:46.807296","12.42887624","0.00212430","82.4451","16.6038","80.6617","279.6863","0","U","39763","999","28029","0.00006635600000","0.00000019","0.0000000000000","7872.522","115.859","1511.111","1477.664","PAYLOAD","LARGE","CIS","2014-05-23","PKMTR","","2791542","158245376","0 COSMOS 2498","1 39763U 14028C   20208.52068064  .00000019  00000-0  66356-4 0  9996","2 39763  82.4451  16.6038 0021243  80.6617 279.6863 12.42887624280294"
"2.0","GENERATED VIA SPACE-TRACK.ORG API","2020-07-26T02:27:25","18 SPCS","COSMOS 2498","2014-028C","EARTH","TEME","UTC","SGP4","2020-07-25T19:06:32.372928","12.42887619","0.00212430","82.4452","17.0576","82.2048","278.1436","0","U","39763","999","28020","0.00009515100000","0.00000023","0.0000000000000","7872.522","115.859","1511.111","1477.664","PAYLOAD","LARGE","CIS","2014-05-23","PKMTR","","2791302","158233935","0 COSMOS 2498","1 39763U 14028C   20207.79620802 +.00000023 +00000-0 +95151-4 0  9998","2 39763 082.4452 017.0576 0021243 082.2048 278.1436 12.42887619280208"
"2.0","GENERATED VIA SPACE-TRACK.ORG API","2020-07-25T22:16:09","18 SPCS","COSMOS 1732","1986-015A","EARTH","TEME","UTC","SGP4","2020-07-25T17:09:33.477984","12.40985688","0.00270610","73.6114","309.8658","267.6513","92.1433","0","U","16593","999","56102","-0.00004403100000","-0.00000023","0.0000000000000","7880.564","116.036","1523.755","1481.103","PAYLOAD","LARGE","CIS","1986-02-11","PKMTR","","2791126","158215044","0 COSMOS 1732","1 16593U 86015A   20207.71497081 -.00000023  00000-0 -44031-4 0  9995","2 16593  73.6114 309.8658 0027061 267.6513  92.1433 12.40985688561020"
"2.0","GENERATED VIA SPACE-TRACK.ORG API","2020-07-25T14:36:10","18 SPCS","COSMOS 2498","2014-028C","EARTH","TEME","UTC","SGP4","2020-07-25T11:22:52.608000","12.42887655","0.00212520","82.4451","17.2595","82.8380","277.5107","0","U","39763","999","28016","0.00009989900000","0.00000024","0.0000000000000","7872.522","115.859","1511.118","1477.657","PAYLOAD","LARGE","CIS","2014-05-23","PKMTR","","2791012","158191700","0 COSMOS 2498","1 39763U 14028C   20207.47422000  .00000024  00000-0  99899-4 0  9997","2 39763  82.4451  17.2595 0021252  82.8380 277.5107 12.42887655280168"
"2.0","GENERATED VIA SPACE-TRACK.ORG API","2020-07-25T17:07:59","18 SPCS","COSMOS 2498","2014-028C","EARTH","TEME","UTC","SGP4","2020-07-25T03:39:12.862944","12.42887723","0.00212410","82.4451","17.4612","83.5814","276.7685","0","U","39763","999","28012","0.00015196000000","0.00000031","0.0000000000000","7872.522","115.859","1511.109","1477.665","PAYLOAD","LARGE","CIS","2014-05-23","PKMTR","","2791107","158209674","0 COSMOS 2498","1 39763U 14028C   20207.15223221 +.00000031 +00000-0 +15196-3 0  9991","2 39763 082.4451 017.4612 0021241 083.5814 276.7685 12.42887723280122"
"2.0","GENERATED VIA SPACE-TRACK.ORG API","2020-07-25T17:07:59","18 SPCS","COSMOS 1732","1986-015A","EARTH","TEME","UTC","SGP4","2020-07-25T03:37:02.412768","12.40985806","0.00270650","73.6125","310.6218","268.4383","91.3561","0","U","16593","999","56071","0.00015267000000","0.00000003","0.0000000000000","7880.563","116.036","1523.757","1481.100","PAYLOAD","LARGE","CIS","1986-02-11","PKMTR","","2791107","158198777","0 COSMOS 1732","1 16593U 86015A   20207.15072237 +.00000003 +00000-0 +15267-3 0  9999","2 16593 073.6125 310.6218 0027065 268.4383 091.3561 12.40985806560712"
